<?xml version="1.0" encoding="UTF-8"?>
<ndm xmlns:xsi="http://www.w3.org/2001/XMLSchema-instance" xsi:noNamespaceSchemaLocation="https://sanaregistry.org/r/ndmxml_unqualified/ndmxml-2.0.0-master-2.0.xsd">
<omm id="CCSDS_OMM_VERS" version="2.0">
<header><CREATION_DATE/><ORIGINATOR/></header><body><segment><metadata><OBJECT_NAME>KUIPER-00125</OBJECT_NAME><OBJECT_ID>2025-228H</OBJECT_ID><CENTER_NAME>EARTH</CENTER_NAME><REF_FRAME>TEME</REF_FRAME><TIME_SYSTEM>UTC</TIME_SYSTEM><MEAN_ELEMENT_THEORY>SGP4</MEAN_ELEMENT_THEORY></metadata><data><meanElements><EPOCH>2025-10-29T23:17:41.242272</EPOCH><MEAN_MOTION>15.34535869</MEAN_MOTION><ECCENTRICITY>.00056526</ECCENTRICITY><INCLINATION>51.8781</INCLINATION><RA_OF_ASC_NODE>231.4423</RA_OF_ASC_NODE><ARG_OF_PERICENTER>196.1486</ARG_OF_PERICENTER><MEAN_ANOMALY>163.9320</MEAN_ANOMALY></meanElements><tleParameters><EPHEMERIS_TYPE>0</EPHEMERIS_TYPE><CLASSIFICATION_TYPE>U</CLASSIFICATION_TYPE><NORAD_CAT_ID>65954</NORAD_CAT_ID><ELEMENT_SET_NO>999</ELEMENT_SET_NO><REV_AT_EPOCH>369</REV_AT_EPOCH><BSTAR>.60489459E-3</BSTAR><MEAN_MOTION_DOT>.20229E-3</MEAN_MOTION_DOT><MEAN_MOTION_DDOT>0</MEAN_MOTION_DDOT></tleParameters></data></segment></body></omm>
<omm id="CCSDS_OMM_VERS" version="2.0">
<header><CREATION_DATE/><ORIGINATOR/></header><body><segment><metadata><OBJECT_NAME>KUIPER-00126</OBJECT_NAME><OBJECT_ID>2025-228J</OBJECT_ID><CENTER_NAME>EARTH</CENTER_NAME><REF_FRAME>TEME</REF_FRAME><TIME_SYSTEM>UTC</TIME_SYSTEM><MEAN_ELEMENT_THEORY>SGP4</MEAN_ELEMENT_THEORY></metadata><data><meanElements><EPOCH>2025-10-29T23:22:15.842208</EPOCH><MEAN_MOTION>15.34284786</MEAN_MOTION><ECCENTRICITY>.00059158</ECCENTRICITY><INCLINATION>51.8787</INCLINATION><RA_OF_ASC_NODE>231.4668</RA_OF_ASC_NODE><ARG_OF_PERICENTER>209.6114</ARG_OF_PERICENTER><MEAN_ANOMALY>150.4537</MEAN_ANOMALY></meanElements><tleParameters><EPHEMERIS_TYPE>0</EPHEMERIS_TYPE><CLASSIFICATION_TYPE>U</CLASSIFICATION_TYPE><NORAD_CAT_ID>65955</NORAD_CAT_ID><ELEMENT_SET_NO>999</ELEMENT_SET_NO><REV_AT_EPOCH>369</REV_AT_EPOCH><BSTAR>.14516567E-2</BSTAR><MEAN_MOTION_DOT>.48877E-3</MEAN_MOTION_DOT><MEAN_MOTION_DDOT>0</MEAN_MOTION_DDOT></tleParameters></data></segment></body></omm>
<omm id="CCSDS_OMM_VERS" version="2.0">
<header><CREATION_DATE/><ORIGINATOR/></header><body><segment><metadata><OBJECT_NAME>KUIPER-00127</OBJECT_NAME><OBJECT_ID>2025-228K</OBJECT_ID><CENTER_NAME>EARTH</CENTER_NAME><REF_FRAME>TEME</REF_FRAME><TIME_SYSTEM>UTC</TIME_SYSTEM><MEAN_ELEMENT_THEORY>SGP4</MEAN_ELEMENT_THEORY></metadata><data><meanElements><EPOCH>2025-10-29T21:39:06.916896</EPOCH><MEAN_MOTION>15.34864291</MEAN_MOTION><ECCENTRICITY>.00061662</ECCENTRICITY><INCLINATION>51.8785</INCLINATION><RA_OF_ASC_NODE>231.7372</RA_OF_ASC_NODE><ARG_OF_PERICENTER>187.8595</ARG_OF_PERICENTER><MEAN_ANOMALY>172.2295</MEAN_ANOMALY></meanElements><tleParameters><EPHEMERIS_TYPE>0</EPHEMERIS_TYPE><CLASSIFICATION_TYPE>U</CLASSIFICATION_TYPE><NORAD_CAT_ID>65956</NORAD_CAT_ID><ELEMENT_SET_NO>999</ELEMENT_SET_NO><REV_AT_EPOCH>368</REV_AT_EPOCH><BSTAR>.12197446E-2</BSTAR><MEAN_MOTION_DOT>.41737E-3</MEAN_MOTION_DOT><MEAN_MOTION_DDOT>0</MEAN_MOTION_DDOT></tleParameters></data></segment></body></omm>
<omm id="CCSDS_OMM_VERS" version="2.0">
<header><CREATION_DATE/><ORIGINATOR/></header><body><segment><metadata><OBJECT_NAME>KUIPER-00128</OBJECT_NAME><OBJECT_ID>2025-228L</OBJECT_ID><CENTER_NAME>EARTH</CENTER_NAME><REF_FRAME>TEME</REF_FRAME><TIME_SYSTEM>UTC</TIME_SYSTEM><MEAN_ELEMENT_THEORY>SGP4</MEAN_ELEMENT_THEORY></metadata><data><meanElements><EPOCH>2025-10-29T21:42:24.046272</EPOCH><MEAN_MOTION>15.34648645</MEAN_MOTION><ECCENTRICITY>.00058095</ECCENTRICITY><INCLINATION>51.8791</INCLINATION><RA_OF_ASC_NODE>231.7554</RA_OF_ASC_NODE><ARG_OF_PERICENTER>192.0109</ARG_OF_PERICENTER><MEAN_ANOMALY>168.0739</MEAN_ANOMALY></meanElements><tleParameters><EPHEMERIS_TYPE>0</EPHEMERIS_TYPE><CLASSIFICATION_TYPE>U</CLASSIFICATION_TYPE><NORAD_CAT_ID>65957</NORAD_CAT_ID><ELEMENT_SET_NO>999</ELEMENT_SET_NO><REV_AT_EPOCH>368</REV_AT_EPOCH><BSTAR>.11224235E-2</BSTAR><MEAN_MOTION_DOT>.38091E-3</MEAN_MOTION_DOT><MEAN_MOTION_DDOT>0</MEAN_MOTION_DDOT></tleParameters></data></segment></body></omm>
<omm id="CCSDS_OMM_VERS" version="2.0">
<header><CREATION_DATE/><ORIGINATOR/></header><body><segment><metadata><OBJECT_NAME>KUIPER-00129</OBJECT_NAME><OBJECT_ID>2025-228M</OBJECT_ID><CENTER_NAME>EARTH</CENTER_NAME><REF_FRAME>TEME</REF_FRAME><TIME_SYSTEM>UTC</TIME_SYSTEM><MEAN_ELEMENT_THEORY>SGP4</MEAN_ELEMENT_THEORY></metadata><data><meanElements><EPOCH>2025-10-29T21:41:47.552640</EPOCH><MEAN_MOTION>15.34683626</MEAN_MOTION><ECCENTRICITY>.00053178</ECCENTRICITY><INCLINATION>51.8783</INCLINATION><RA_OF_ASC_NODE>231.7520</RA_OF_ASC_NODE><ARG_OF_PERICENTER>193.8226</ARG_OF_PERICENTER><MEAN_ANOMALY>166.2614</MEAN_ANOMALY></meanElements><tleParameters><EPHEMERIS_TYPE>0</EPHEMERIS_TYPE><CLASSIFICATION_TYPE>U</CLASSIFICATION_TYPE><NORAD_CAT_ID>65958</NORAD_CAT_ID><ELEMENT_SET_NO>999</ELEMENT_SET_NO><REV_AT_EPOCH>368</REV_AT_EPOCH><BSTAR>.11918286E-2</BSTAR><MEAN_MOTION_DOT>.40526E-3</MEAN_MOTION_DOT><MEAN_MOTION_DDOT>0</MEAN_MOTION_DDOT></tleParameters></data></segment></body></omm>
<omm id="CCSDS_OMM_VERS" version="2.0">
<header><CREATION_DATE/><ORIGINATOR/></header><body><segment><metadata><OBJECT_NAME>KUIPER-00130</OBJECT_NAME><OBJECT_ID>2025-228N</OBJECT_ID><CENTER_NAME>EARTH</CENTER_NAME><REF_FRAME>TEME</REF_FRAME><TIME_SYSTEM>UTC</TIME_SYSTEM><MEAN_ELEMENT_THEORY>SGP4</MEAN_ELEMENT_THEORY></metadata><data><meanElements><EPOCH>2025-10-29T23:19:11.626176</EPOCH><MEAN_MOTION>15.34473611</MEAN_MOTION><ECCENTRICITY>.00053115</ECCENTRICITY><INCLINATION>51.8783</INCLINATION><RA_OF_ASC_NODE>231.4492</RA_OF_ASC_NODE><ARG_OF_PERICENTER>201.9216</ARG_OF_PERICENTER><MEAN_ANOMALY>158.1543</MEAN_ANOMALY></meanElements><tleParameters><EPHEMERIS_TYPE>0</EPHEMERIS_TYPE><CLASSIFICATION_TYPE>U</CLASSIFICATION_TYPE><NORAD_CAT_ID>65959</NORAD_CAT_ID><ELEMENT_SET_NO>999</ELEMENT_SET_NO><REV_AT_EPOCH>369</REV_AT_EPOCH><BSTAR>.11222209E-2</BSTAR><MEAN_MOTION_DOT>.37868E-3</MEAN_MOTION_DOT><MEAN_MOTION_DDOT>0</MEAN_MOTION_DDOT></tleParameters></data></segment></body></omm>
<omm id="CCSDS_OMM_VERS" version="2.0">
<header><CREATION_DATE/><ORIGINATOR/></header><body><segment><metadata><OBJECT_NAME>KUIPER-00134</OBJECT_NAME><OBJECT_ID>2025-228P</OBJECT_ID><CENTER_NAME>EARTH</CENTER_NAME><REF_FRAME>TEME</REF_FRAME><TIME_SYSTEM>UTC</TIME_SYSTEM><MEAN_ELEMENT_THEORY>SGP4</MEAN_ELEMENT_THEORY></metadata><data><meanElements><EPOCH>2025-10-29T23:20:43.164384</EPOCH><MEAN_MOTION>15.34365407</MEAN_MOTION><ECCENTRICITY>.00051627</ECCENTRICITY><INCLINATION>51.8782</INCLINATION><RA_OF_ASC_NODE>231.4557</RA_OF_ASC_NODE><ARG_OF_PERICENTER>206.6680</ARG_OF_PERICENTER><MEAN_ANOMALY>153.4041</MEAN_ANOMALY></meanElements><tleParameters><EPHEMERIS_TYPE>0</EPHEMERIS_TYPE><CLASSIFICATION_TYPE>U</CLASSIFICATION_TYPE><NORAD_CAT_ID>65960</NORAD_CAT_ID><ELEMENT_SET_NO>999</ELEMENT_SET_NO><REV_AT_EPOCH>369</REV_AT_EPOCH><BSTAR>.11428961E-2</BSTAR><MEAN_MOTION_DOT>.38441E-3</MEAN_MOTION_DOT><MEAN_MOTION_DDOT>0</MEAN_MOTION_DDOT></tleParameters></data></segment></body></omm>
<omm id="CCSDS_OMM_VERS" version="2.0">
<header><CREATION_DATE/><ORIGINATOR/></header><body><segment><metadata><OBJECT_NAME>KUIPER-00135</OBJECT_NAME><OBJECT_ID>2025-228Q</OBJECT_ID><CENTER_NAME>EARTH</CENTER_NAME><REF_FRAME>TEME</REF_FRAME><TIME_SYSTEM>UTC</TIME_SYSTEM><MEAN_ELEMENT_THEORY>SGP4</MEAN_ELEMENT_THEORY></metadata><data><meanElements><EPOCH>2025-10-29T23:20:09.475296</EPOCH><MEAN_MOTION>15.34356406</MEAN_MOTION><ECCENTRICITY>.00051011</ECCENTRICITY><INCLINATION>51.8798</INCLINATION><RA_OF_ASC_NODE>231.4606</RA_OF_ASC_NODE><ARG_OF_PERICENTER>194.3004</ARG_OF_PERICENTER><MEAN_ANOMALY>165.7837</MEAN_ANOMALY></meanElements><tleParameters><EPHEMERIS_TYPE>0</EPHEMERIS_TYPE><CLASSIFICATION_TYPE>U</CLASSIFICATION_TYPE><NORAD_CAT_ID>65961</NORAD_CAT_ID><ELEMENT_SET_NO>999</ELEMENT_SET_NO><REV_AT_EPOCH>369</REV_AT_EPOCH><BSTAR>.91013247E-3</BSTAR><MEAN_MOTION_DOT>.30493E-3</MEAN_MOTION_DOT><MEAN_MOTION_DDOT>0</MEAN_MOTION_DDOT></tleParameters></data></segment></body></omm>

</ndm>
